{
  "links" : {
    "next" : "https://api.nasa.gov/neo/rest/v1/feed?start_date=2014-08-09&end_date=2014-08-09&detailed=true&api_key=t0TVs3DtDT2H8Oy2Zy8m2eVrNsAVKAexjcZXUckd",
    "prev" : "https://api.nasa.gov/neo/rest/v1/feed?start_date=2014-08-07&end_date=2014-08-07&detailed=true&api_key=t0TVs3DtDT2H8Oy2Zy8m2eVrNsAVKAexjcZXUckd",
    "self" : "https://api.nasa.gov/neo/rest/v1/feed?start_date=2014-08-08&end_date=2014-08-08&detailed=true&api_key=t0TVs3DtDT2H8Oy2Zy8m2eVrNsAVKAexjcZXUckd"
  },
  "element_count" : 9,
  "near_earth_objects" : {
    "2014-08-08" : [ {
      "links" : {
        "self" : "https://api.nasa.gov/neo/rest/v1/neo/3634612?api_key=t0TVs3DtDT2H8Oy2Zy8m2eVrNsAVKAexjcZXUckd"
      },
      "neo_reference_id" : "3634612",
      "name" : "(2013 GH66)",
      "nasa_jpl_url" : "http://ssd.jpl.nasa.gov/sbdb.cgi?sstr=3634612",
      "absolute_magnitude_h" : 28.0,
      "estimated_diameter" : {
        "kilometers" : {
          "estimated_diameter_min" : 0.0066765941,
          "estimated_diameter_max" : 0.0149293183
        },
        "meters" : {
          "estimated_diameter_min" : 6.676594135,
          "estimated_diameter_max" : 14.9293183439
        },
        "miles" : {
          "estimated_diameter_min" : 0.004148642,
          "estimated_diameter_max" : 0.0092766455
        },
        "feet" : {
          "estimated_diameter_min" : 21.9048371017,
          "estimated_diameter_max" : 48.9807047955
        }
      },
      "is_potentially_hazardous_asteroid" : false,
      "close_approach_data" : [ {
        "close_approach_date" : "2014-08-08",
        "epoch_date_close_approach" : 1407481200000,
        "relative_velocity" : {
          "kilometers_per_second" : "13.9736529002",
          "kilometers_per_hour" : "50305.1504405576",
          "miles_per_hour" : "31257.6641723565"
        },
        "miss_distance" : {
          "astronomical" : "0.4395475403",
          "lunar" : "170.9839935303",
          "kilometers" : "65755376",
          "miles" : "40858496"
        },
        "orbiting_body" : "Earth"
      } ],
      "orbital_data" : {
        "orbit_id" : "12",
        "orbit_determination_date" : "2017-04-06 08:46:11",
        "orbit_uncertainty" : "3",
        "minimum_orbit_intersection" : ".0103258",
        "jupiter_tisserand_invariant" : "5.847",
        "epoch_osculation" : "2458000.5",
        "eccentricity" : ".04458320926149305",
        "semi_major_axis" : "1.051160768651376",
        "inclination" : "3.446409155693825",
        "ascending_node_longitude" : "198.6218167615785",
        "orbital_period" : "393.6426461679126",
        "perihelion_distance" : "1.004296648135119",
        "perihelion_argument" : "35.99739064669767",
        "aphelion_distance" : "1.098024889167632",
        "perihelion_time" : "2458001.899829139947",
        "mean_anomaly" : "358.719807177178",
        "mean_motion" : ".9145350573790169",
        "equinox" : "J2000"
      }
    }, {
      "links" : {
        "self" : "https://api.nasa.gov/neo/rest/v1/neo/3654342?api_key=t0TVs3DtDT2H8Oy2Zy8m2eVrNsAVKAexjcZXUckd"
      },
      "neo_reference_id" : "3654342",
      "name" : "(2013 XF4)",
      "nasa_jpl_url" : "http://ssd.jpl.nasa.gov/sbdb.cgi?sstr=3654342",
      "absolute_magnitude_h" : 26.0,
      "estimated_diameter" : {
        "kilometers" : {
          "estimated_diameter_min" : 0.0167708462,
          "estimated_diameter_max" : 0.0375007522
        },
        "meters" : {
          "estimated_diameter_min" : 16.7708462163,
          "estimated_diameter_max" : 37.5007521798
        },
        "miles" : {
          "estimated_diameter_min" : 0.0104209175,
          "estimated_diameter_max" : 0.0233018799
        },
        "feet" : {
          "estimated_diameter_min" : 55.0224631002,
          "estimated_diameter_max" : 123.0339677816
        }
      },
      "is_potentially_hazardous_asteroid" : false,
      "close_approach_data" : [ {
        "close_approach_date" : "2014-08-08",
        "epoch_date_close_approach" : 1407481200000,
        "relative_velocity" : {
          "kilometers_per_second" : "19.3150933225",
          "kilometers_per_hour" : "69534.3359608862",
          "miles_per_hour" : "43205.9322530296"
        },
        "miss_distance" : {
          "astronomical" : "0.4902378413",
          "lunar" : "190.7025146484",
          "kilometers" : "73338536",
          "miles" : "45570452"
        },
        "orbiting_body" : "Earth"
      } ],
      "orbital_data" : {
        "orbit_id" : "5",
        "orbit_determination_date" : "2017-04-06 08:43:24",
        "orbit_uncertainty" : "8",
        "minimum_orbit_intersection" : ".0049984",
        "jupiter_tisserand_invariant" : "6.460",
        "epoch_osculation" : "2456632.5",
        "eccentricity" : ".4295900088509362",
        "semi_major_axis" : ".9115798913647466",
        "inclination" : "5.769826004149908",
        "ascending_node_longitude" : "65.78766981731296",
        "orbital_period" : "317.9000026759302",
        "perihelion_distance" : ".5199742777650297",
        "perihelion_argument" : "231.9349347361583",
        "aphelion_distance" : "1.303185504964463",
        "perihelion_time" : "2456552.893623198414",
        "mean_anomaly" : "90.14877448046281",
        "mean_motion" : "1.132431572726304",
        "equinox" : "J2000"
      }
    }, {
      "links" : {
        "self" : "https://api.nasa.gov/neo/rest/v1/neo/3672964?api_key=t0TVs3DtDT2H8Oy2Zy8m2eVrNsAVKAexjcZXUckd"
      },
      "neo_reference_id" : "3672964",
      "name" : "(2014 KV84)",
      "nasa_jpl_url" : "http://ssd.jpl.nasa.gov/sbdb.cgi?sstr=3672964",
      "absolute_magnitude_h" : 20.1,
      "estimated_diameter" : {
        "kilometers" : {
          "estimated_diameter_min" : 0.2538370294,
          "estimated_diameter_max" : 0.5675968529
        },
        "meters" : {
          "estimated_diameter_min" : 253.8370293645,
          "estimated_diameter_max" : 567.5968528656
        },
        "miles" : {
          "estimated_diameter_min" : 0.1577269688,
          "estimated_diameter_max" : 0.3526882241
        },
        "feet" : {
          "estimated_diameter_min" : 832.7986794202,
          "estimated_diameter_max" : 1862.1944587557
        }
      },
      "is_potentially_hazardous_asteroid" : false,
      "close_approach_data" : [ {
        "close_approach_date" : "2014-08-08",
        "epoch_date_close_approach" : 1407481200000,
        "relative_velocity" : {
          "kilometers_per_second" : "3.9260241333",
          "kilometers_per_hour" : "14133.6868798058",
          "miles_per_hour" : "8782.1233837326"
        },
        "miss_distance" : {
          "astronomical" : "0.3246362202",
          "lunar" : "126.283493042",
          "kilometers" : "48564888",
          "miles" : "30176822"
        },
        "orbiting_body" : "Earth"
      } ],
      "orbital_data" : {
        "orbit_id" : "32",
        "orbit_determination_date" : "2017-04-06 08:40:15",
        "orbit_uncertainty" : "2",
        "minimum_orbit_intersection" : ".286361",
        "jupiter_tisserand_invariant" : "3.529",
        "epoch_osculation" : "2458000.5",
        "eccentricity" : ".4150338887190758",
        "semi_major_axis" : "2.212922215788074",
        "inclination" : "7.123631056968792",
        "ascending_node_longitude" : "331.9484734515427",
        "orbital_period" : "1202.396352085698",
        "perihelion_distance" : "1.294484503136716",
        "perihelion_argument" : "331.7606182525925",
        "aphelion_distance" : "3.131359928439432",
        "perihelion_time" : "2458056.848451770264",
        "mean_anomaly" : "343.1291548730103",
        "mean_motion" : ".299402105949122",
        "equinox" : "J2000"
      }
    } ]
  }
}